STARLINK-6377           
1 57341U 23099P   26025.59063189 -.00000489  00000+0 -21123-4 0  9994
2 57341  43.0078 123.1326 0000927 335.4873  24.5925 15.02541073139630
STARLINK-6375           
1 57342U 23099Q   26025.63490267  .00005474  00000+0  42004-3 0  9998
2 57342  43.0036 122.6083 0001330 264.9875  95.0816 15.02529049139648
STARLINK-6379           
1 57343U 23099R   26025.65377784 -.00000927  00000+0 -53520-4 0  9995
2 57343  43.0035 122.7502 0001388 281.7298  78.3389 15.02535966139648
STARLINK-6380           
1 57344U 23099S   26025.97727573  .00001341  00000+0  11428-3 0  9995
2 57344  43.0034 120.8744 0001124 272.4694  87.6020 15.02554463139693
STARLINK-6373           
1 57345U 23099T   26025.64822388 -.00000433  00000+0 -16986-4 0  9998
2 57345  43.0031 122.7082 0001221 266.5805  93.4898 15.02536745139649
STARLINK-6359           
1 57346U 23099U   26025.96063519  .00000275  00000+0  35460-4 0  9997
2 57346  43.0041 120.7478 0001190 275.9781  84.0926 15.02537763139694
STARLINK-6378           
1 57347U 23099V   26025.97284701 -.00000699  00000+0 -36682-4 0  9996
2 57347  43.0027 120.8439 0001374 271.3262  88.7423 15.02538378139691
STARLINK-6372           
1 57348U 23099W   26025.95508374 -.00001255  00000+0 -77827-4 0  9995
2 57348  43.0014 120.7103 0000993 279.8264  80.2466 15.02544353139690
STARLINK-6376           
1 57349U 23099X   26025.69139061  .00007642  00000+0  58031-3 0  9999
2 57349  43.0018 122.1722 0001369 290.2756  69.7939 15.02524588140371
STARLINK-6362           
1 57350U 23099Y   26025.63083627  .00000790  00000+0  73539-4 0  9999
2 57350  43.0018 110.4120 0001197 256.3095 103.7614 15.02540761139786
STARLINK-6331           
1 57351U 23099Z   26025.62157693  .00001515  00000+0  12721-3 0  9995
2 57351  43.0016 122.5125 0001395 268.2374  91.8308 15.02539677139642
STARLINK-6297           
1 57352U 23099AA  26025.62417780  .00000841  00000+0  77341-4 0  9993
2 57352  43.0038 110.3617 0001287 279.4620  80.6077 15.02529447139784
STARLINK-6324           
1 57353U 23099AB  26025.95174912 -.00002800  00000+0 -19219-3 0  9995
2 57353  43.0037 120.6857 0000972 287.0879  72.9857 15.02553448139693
STARLINK-6293           
1 57354U 23099AC  26025.61530292 -.00001830  00000+0 -12044-3 0  9997
2 57354  43.0032 110.2940 0001363 272.0716  87.9970 15.02542199139789
STARLINK-6276           
1 57355U 23099AD  26025.49455548 -.00001032  00000+0 -61345-4 0  9997
2 57355  43.0026 111.1085 0000805 294.1022  65.9736 15.02546372139769
STARLINK-6355           
1 57356U 23099AE  26025.54771323 -.00000036  00000+0  12390-4 0  9994
2 57356  43.0048 110.6450 0001226 265.3195  94.7507 15.02541933139778
STARLINK-5600           
1 57357U 23099AF  26024.62479131 -.00002752  00000+0 -18872-3 0  9993
2 57357  43.0034 115.7622 0001017 274.5120  85.5606 15.02544206139638
STARLINK-6299           
1 57358U 23099AG  26025.60864502 -.00002490  00000+0 -16931-3 0  9996
2 57358  43.0054 110.2383 0001176 270.8219  89.2489 15.02542737140526
STARLINK-6347           
1 57359U 23099AH  26025.62528963 -.00000289  00000+0 -62956-5 0  9991
2 57359  43.0040 110.3685 0001095 269.4253  90.6463 15.02546427139784
STARLINK-6348           
1 57360U 23099AJ  26025.66844712 -.00008628  00000+0 -62406-3 0  9993
2 57360  43.0035 109.8303 0001133 261.9353  98.1360 15.02557291139792
STARLINK-6340           
1 57361U 23099AK  26025.94324860 -.00000621  00000+0 -30881-4 0  9990
2 57361  43.0069 108.4487 0001860 261.2747  98.7885 15.02542251139838
STARLINK-6343           
1 57362U 23099AL  26025.59864884  .00000304  00000+0  37573-4 0  9998
2 57362  43.0038 110.1669 0001253 287.5099  72.5606 15.02534239139786
STARLINK-6356           
1 57363U 23099AM  26025.60531042 -.00001271  00000+0 -78985-4 0  9996
2 57363  43.0025 110.2179 0001172 274.1905  85.8803 15.02544142139788
STARLINK-6338           
1 57364U 23099AN  26025.59754324 -.00001327  00000+0 -83176-4 0  9995
2 57364  43.0012 110.1578 0001230 262.7268  97.3434 15.02541262139785
STARLINK-5007           
1 57365U 23099AP  26025.58755596 -.00000012  00000+0  14146-4 0  9997
2 57365  43.0048 110.0781 0001052 259.5874 100.4850 15.02532755139784
STARLINK-6174           
1 57366U 23099AQ  26025.59088259 -.00001045  00000+0 -62309-4 0  9996
2 57366  43.0004 110.1083 0001225 275.4705  84.5998 15.02542798139788
STARLINK-6215           
1 57367U 23099AR  26025.58447200  .00000188  00000+0  28993-4 0  9997
2 57367  43.0030  97.0265 0001865 263.7470  96.3160 15.02542653140685
STARLINK-6218           
1 57368U 23099AS  26025.65180239 -.00000707  00000+0 -37245-4 0  9991
2 57368  43.0026 109.7005 0001339 280.1096  79.9595 15.02543769139795
STARLINK-6168           
1 57369U 23099AT  26025.92659573 -.00004601  00000+0 -32556-3 0  9990
2 57369  43.0035 108.3272 0001107 266.9152  93.1564 15.02559680139833
STARLINK-5353           
1 57370U 23099AU  26025.64514419 -.00003545  00000+0 -24742-3 0  9994
2 57370  43.0044 109.6488 0001336 264.4806  95.5884 15.02546689139792
STARLINK-6032           
1 57371U 23099AV  26025.59199370  .00000350  00000+0  40994-4 0  9991
2 57371  43.0024 110.1135 0000707 266.2339  93.8422 15.02537428139788
STARLINK-5975           
1 57372U 23099AW  26025.50442500 -.00000401  00000+0 -14638-4 0  9994
2 57372  43.0031 110.3052 0001183 260.9110  99.1598 15.02541619139773
STARLINK-6370           
1 57373U 23099AX  26025.62640274 -.00004103  00000+0 -28881-3 0  9993
2 57373  43.0022 110.3579 0000388 175.3711 184.7135 15.02538674139786
STARLINK-6369           
1 57374U 23099AY  26025.59668450 -.00002271  00000+0 -15306-3 0  9998
2 57374  43.0033  97.1389 0001277 271.8620  88.2076 15.02542385139932
STARLINK-6363           
1 57375U 23099AZ  26025.90994550  .00000037  00000+0  17828-4 0  9995
2 57375  43.0017 108.1973 0001248 264.2143  95.8557 15.02543403139830
STARLINK-6367           
1 57376U 23099BA  26025.56757219  .00018044  00000+0  13466-2 0  9996
2 57376  43.0018 109.9293 0001748 261.0905  98.9740 15.02557757139781
STARLINK-6358           
1 57377U 23099BB  26025.90438355  .00007578  00000+0  57511-3 0  9992
2 57377  43.0087 108.1551 0001462 265.7409  94.3267 15.02560838139833
STARLINK-6364           
1 57378U 23099BC  26025.45955422 -.00000490  00000+0 -21224-4 0  9993
2 57378  43.0049  84.8251 0001093 273.5335  86.5382 15.02540232140800
STARLINK-6361           
1 57379U 23099BD  26025.56868318 -.00000783  00000+0 -42907-4 0  9999
2 57379  43.0027 109.9377 0001601 273.5971  86.4688 15.02545888139781
STARLINK-6366           
1 57380U 23099BE  26025.85730684 -.00001101  00000+0 -66437-4 0  9996
2 57380  43.0025  82.6410 0001475 260.9252  99.1423 15.02541204140853
STARLINK-6371           
1 57381U 23099BF  26025.88701478 -.00001250  00000+0 -77446-4 0  9996
2 57381  43.0049  95.8602 0001164 273.9492  86.1217 15.02545870140719
STARLING 4              
1 57386U 23100A   26025.96482587  .00006527  00000+0  45565-3 0  9996
2 57386  99.5069  10.6329 0006201 205.7257 154.3656 15.05821192138496
STARLING 2              
1 57387U 23100B   26025.96516512  .00007706  00000+0  53663-3 0  9991
2 57387  99.5069  10.6560 0004792 213.4509 146.6409 15.05834414138494
STARLING 1              
1 57388U 23100C   26025.96500385  .00005401  00000+0  37824-3 0  9994
2 57388  99.5109  11.1899 0005869  26.8883 333.2641 15.05817985138494
STARLING 3              
1 57389U 23100D   26025.89631929  .00012175  00000+0  74531-3 0  9998
2 57389  99.5059  12.2468 0004723 202.1456 157.9564 15.10414634138570
LEMUR-2-MANO            
1 57390U 23100E   26025.98595009  .00106027  00000+0  18158-2 0  9990
2 57390  99.4632  34.8103 0005969 110.2244 249.9643 15.50825765139847
LEMUR-2-DEVERILL-M-T    
1 57391U 23100F   26025.97527925  .00037212  00000+0  11960-2 0  9995
2 57391  99.4572  24.5560 0008675 144.7862 215.3948 15.32150374139414
LEO 3                   
1 57392U 23100G   26025.75850359  .00000026  00000+0  81907-4 0  9995
2 57392  99.5432 151.5553 0018379  24.9313 335.2717 13.68414894126167
TIANMU-1 07             
1 57399U 23101A   26025.98301911  .00011041  00000+0  39633-3 0  9990
2 57399  97.2812  79.8635 0002319 284.6204  75.4779 15.28845095139912
TIANMU-1 08             
1 57400U 23101B   26025.88629293  .00010400  00000+0  37470-3 0  9993
2 57400  97.2801  79.5560 0004109 284.5272  75.5512 15.28734178139892
TIANMU-1 09             
1 57401U 23101C   26025.93613661  .00011364  00000+0  40740-3 0  9996
2 57401  97.2759  79.0984 0003492 288.9264  71.1597 15.28876602139909
TIANMU-1 10             
1 57402U 23101D   26025.97054740  .00011970  00000+0  42895-3 0  9994
2 57402  97.2838  80.0289 0005239 287.6918  72.3750 15.28869908139906
STARLINK-30240          
1 57404U 23102A   26025.94519981 -.00001078  00000+0 -64687-4 0  9991
2 57404  43.0032 121.3809 0001423 263.8449  96.2231 15.02543746139805
STARLINK-30192          
1 57405U 23102B   26025.21438854  .00978035  52059-3  12543-2 0  9992
2 57405  42.9886  77.5421 0009097  65.3774 294.8053 16.06396266140240
STARLINK-30195          
1 57406U 23102C   26025.60613214 -.00000461  00000+0 -19053-4 0  9992
2 57406  43.0031 123.1331 0001927 260.0974  99.9651 15.02557852139750
STARLINK-30207          
1 57407U 23102D   26025.90550776 -.00000068  00000+0  10004-4 0  9998
2 57407  43.0012 108.1658 0001177 278.8208  81.2501 15.02535347139965
STARLINK-30205          
1 57408U 23102E   26025.66263938  .00001676  00000+0  13909-3 0  9994
2 57408  43.0034 122.7042 0002003 293.3064  66.7568 15.02547598139760
STARLINK-30222          
1 57409U 23102F   26025.65265189 -.00001380  00000+0 -87049-4 0  9995
2 57409  43.0020 122.6293 0001311 277.2217  82.8476 15.02545539139765
STARLINK-30172          
1 57410U 23102G   26025.65930860 -.00001908  00000+0 -12617-3 0  9996
2 57410  43.0038 122.6620 0001182 282.2179  77.8531 15.02544010139768
